{"type":"FeatureCollection","features":[{"type":"Feature","properties":{},"geometry":{"coordinates":[23.80750647552935,61.44175677808849],"type":"Point"}},{"type":"Feature","properties":{},"geometry":{"coordinates":[[[23.80495358863513,61.44189277081841],[23.805032993759795,61.441365797769606],[23.805948488139393,61.4410933760071],[23.807606653980145,61.441030852643934],[23.80924613626115,61.4413412352493],[23.808582869924663,61.44202674559733],[23.807489881736956,61.44239070750771],[23.80495358863513,61.44189277081841]]],"type":"Polygon"}},{"type":"Feature","properties":{},"geometry":{"coordinates":[23.809137331682933,61.43206410908502],"type":"Point"}},{"type":"Feature","properties":{},"geometry":{"coordinates":[[[23.808143830417464,61.432315533225136],[23.80956140004139,61.4311881740019],[23.81187265486193,61.43062447911342],[23.81441503516433,61.430392366492896],[23.818590702208695,61.430329732632856],[23.81833646417701,61.43125449037797],[23.81610995536647,61.432636049487826],[23.810509014517123,61.43300077088492],[23.808305618254792,61.43260289278578],[23.808143830417464,61.432315533225136]]],"type":"Polygon"}}]}