{"type":"FeatureCollection","features":[{"type":"Feature","properties":{},"geometry":{"coordinates":[15.9458309205707,45.78816948050115],"type":"Point"}},{"type":"Feature","properties":{},"geometry":{"coordinates":[[[15.945843160563243,45.788782135436804],[15.945265386160258,45.78870918481468],[15.944892869167404,45.788305129870764],[15.944922209434793,45.7879995295813],[15.945652272510387,45.78780423952702],[15.947025315024206,45.786809485375045],[15.94758764528234,45.78719705472972],[15.946626701693248,45.787896558006],[15.947625977908558,45.78834444604547],[15.947590792056161,45.78847782438473],[15.946145250225186,45.788491541063024],[15.945843160563243,45.788782135436804]]],"type":"Polygon"}}]}