{"type":"FeatureCollection","features":[{"type":"Feature","properties":{},"geometry":{"coordinates":[[[8.648919213635907,49.422630096841175],[8.649000797930626,49.42186672116031],[8.648837629342154,49.4216258675454],[8.649057279364513,49.42155238654561],[8.649308307961718,49.42158912705929],[8.649138863659232,49.42213614922716],[8.6506262080986,49.422323931550466],[8.650274768062701,49.42281787727424],[8.648919213635907,49.422630096841175]]],"type":"Polygon"}},{"type":"Feature","properties":{},"geometry":{"coordinates":[[[8.75679623300502,49.41831676790895],[8.75707577096287,49.41814098096734],[8.757415875480177,49.417989439994784],[8.757849159316436,49.41795913174394],[8.758561981110432,49.41791973099032],[8.759614907421877,49.417837898554296],[8.761240886549842,49.417649986518484],[8.761245545515806,49.41778334352131],[8.760486134060272,49.41784396022092],[8.759824560890962,49.41792882347485],[8.758548004212429,49.418028840692415],[8.758030858989457,49.418068241358895],[8.757509054799101,49.41809248790673],[8.757262129603305,49.41820765884697],[8.756931343017925,49.41843496911909],[8.75679623300502,49.41831676790895]]],"type":"Polygon"}},{"type":"Feature","properties":{},"geometry":{"coordinates":[8.7587297038869,49.41796519339559],"type":"Point"}},{"type":"Feature","properties":{},"geometry":{"coordinates":[8.649084580597304,49.422334789095345],"type":"Point"}}]}