{"type":"FeatureCollection","features":[{"type":"Feature","properties":{},"geometry":{"coordinates":[11.3385469820048,44.51965073670647],"type":"Point"}},{"type":"Feature","properties":{},"geometry":{"coordinates":[[[11.336558216540027,44.51926682606921],[11.337913610737274,44.51915332072332],[11.33790451413185,44.518877663961604],[11.337803465662972,44.516984618918684],[11.339149000316496,44.516941255124664],[11.34064657278438,44.51688705033669],[11.342144145252291,44.51684368647011],[11.341870477186689,44.51753208404213],[11.341817263952379,44.517797684080364],[11.341969301765602,44.51805786253615],[11.342539443568029,44.51882213003091],[11.34298688671862,44.519272070755505],[11.343404990706688,44.519743631418606],[11.343610241755329,44.520209768092684],[11.34185420500333,44.52042115442535],[11.341930223911135,44.52084934490287],[11.340006945563232,44.5210390485386],[11.33990051909376,44.52134799313845],[11.339847305859507,44.521472654530356],[11.338456159861295,44.520941486746466],[11.33861579956644,44.52071926205298],[11.33784040671415,44.52062711985826],[11.337338681928742,44.520415734273314],[11.337011800627636,44.52015556634612],[11.336558216540027,44.51926682606921]]],"type":"Polygon"}}]}